CZ-4B R/B               
1 66989U 25289B   25365.77282098  .00163728  10249-4  71413-3 0  9994
2 66989  97.5221  72.5465 0134193 290.6484  68.0432 15.72255133  3559
TJS-22                  
1 66990U 25290A   25365.33132964  .00000012  00000+0  00000+0 0  9991
2 66990   1.9419 285.0507 0003330 344.6079  16.0837  1.00272486   347
CZ-3B R/B               
1 66991U 25290B   25349.72468800  .00057911 -20514-6  75879-3 0  9998
2 66991  28.4636 300.4666 7240884 182.7002 168.6250  2.38388611   165
2025-292A               
1 66993U 25292A   25365.89410783  .00008737  00000+0  62347-3 0  9993
2 66993  97.6503  78.2571 0015072 204.6999 155.3507 15.04681111  3275
2025-292B               
1 66994U 25292B   25365.89342216  .00009888  00000+0  70384-3 0  9997
2 66994  97.6514  78.2604 0014860 205.0162 155.0346 15.04741360  3277
2025-292C               
1 66995U 25292C   25365.89367436  .00010965  00000+0  78181-3 0  9990
2 66995  97.6504  78.2576 0015033 203.1795 156.8754 15.04650379  3270
2025-292D               
1 66996U 25292D   25365.89288149  .00007341  00000+0  52415-3 0  9990
2 66996  97.6500  78.2574 0014232 207.1211 152.9274 15.04727735  3277
2025-292E               
1 66997U 25292E   25365.89146311  .00008850  00000+0  62850-3 0  9995
2 66997  97.6522  78.2649 0014588 208.4913 151.5517 15.04866375  3260
2025-292F               
1 66998U 25292F   25365.88896481  .00010643  00000+0  75028-3 0  9999
2 66998  97.6546  78.2735 0015703 209.1207 150.9145 15.05075229  3279
2025-292G               
1 66999U 25292G   25365.88804346  .00010520  00000+0  74054-3 0  9991
2 66999  97.6556  78.2771 0015184 210.9216 149.1117 15.05140140  3278
2025-292H               
1 67000U 25292H   25365.88773719  .00012888  00000+0  90454-3 0  9995
2 67000  97.6570  78.2810 0015091 210.8874 149.1466 15.05196892  3146
2025-292J               
1 67001U 25292J   25365.56394446  .00011310  00000+0  80828-3 0  9990
2 67001  97.6532  77.9339 0015495 202.4579 157.5970 15.04547369  3224
