CCSDS_OMM_VERS = 2.0
CREATION_DATE  = 
ORIGINATOR     = 

OBJECT_NAME    = CZ-4B R/B
OBJECT_ID      = 2025-289B
CENTER_NAME    = EARTH
REF_FRAME      = TEME
TIME_SYSTEM    = UTC
MEAN_ELEMENT_THEORY = SGP/SGP4

EPOCH          = 2025-12-31T18:32:51.732672
MEAN_MOTION    = 15.72255133
ECCENTRICITY   = .01341936
INCLINATION    = 97.5221
RA_OF_ASC_NODE = 72.5465
ARG_OF_PERICENTER = 290.6484
MEAN_ANOMALY   = 68.0432

EPHEMERIS_TYPE = 0
CLASSIFICATION_TYPE = U
NORAD_CAT_ID   = 66989
ELEMENT_SET_NO = 999
REV_AT_EPOCH   = 355
BSTAR          = .71412941E-3
MEAN_MOTION_DOT = .163728E-2
MEAN_MOTION_DDOT = .10248994E-4

CCSDS_OMM_VERS = 2.0
CREATION_DATE  = 
ORIGINATOR     = 

OBJECT_NAME    = TJS-22
OBJECT_ID      = 2025-290A
CENTER_NAME    = EARTH
REF_FRAME      = TEME
TIME_SYSTEM    = UTC
MEAN_ELEMENT_THEORY = SGP/SGP4

EPOCH          = 2025-12-31T07:57:06.880896
MEAN_MOTION    = 1.00272486
ECCENTRICITY   = .00033305
INCLINATION    = 1.9419
RA_OF_ASC_NODE = 285.0507
ARG_OF_PERICENTER = 344.6079
MEAN_ANOMALY   = 16.0837

EPHEMERIS_TYPE = 0
CLASSIFICATION_TYPE = U
NORAD_CAT_ID   = 66990
ELEMENT_SET_NO = 999
REV_AT_EPOCH   = 34
BSTAR          = 0
MEAN_MOTION_DOT = .12E-6
MEAN_MOTION_DDOT = 0

CCSDS_OMM_VERS = 2.0
CREATION_DATE  = 
ORIGINATOR     = 

OBJECT_NAME    = CZ-3B R/B
OBJECT_ID      = 2025-290B
CENTER_NAME    = EARTH
REF_FRAME      = TEME
TIME_SYSTEM    = UTC
MEAN_ELEMENT_THEORY = SGP/SGP4

EPOCH          = 2025-12-15T17:23:33.043200
MEAN_MOTION    = 2.38388611
ECCENTRICITY   = .7240884
INCLINATION    = 28.4636
RA_OF_ASC_NODE = 300.4666
ARG_OF_PERICENTER = 182.7002
MEAN_ANOMALY   = 168.6250

EPHEMERIS_TYPE = 0
CLASSIFICATION_TYPE = U
NORAD_CAT_ID   = 66991
ELEMENT_SET_NO = 999
REV_AT_EPOCH   = 16
BSTAR          = .75879E-3
MEAN_MOTION_DOT = .57911E-3
MEAN_MOTION_DDOT = -.20514E-6

CCSDS_OMM_VERS = 2.0
CREATION_DATE  = 
ORIGINATOR     = 

OBJECT_NAME    = 2025-292A
OBJECT_ID      = 2025-292A
CENTER_NAME    = EARTH
REF_FRAME      = TEME
TIME_SYSTEM    = UTC
MEAN_ELEMENT_THEORY = SGP/SGP4

EPOCH          = 2025-12-31T21:27:30.916512
MEAN_MOTION    = 15.04681111
ECCENTRICITY   = .00150721
INCLINATION    = 97.6503
RA_OF_ASC_NODE = 78.2571
ARG_OF_PERICENTER = 204.6999
MEAN_ANOMALY   = 155.3507

EPHEMERIS_TYPE = 0
CLASSIFICATION_TYPE = U
NORAD_CAT_ID   = 66993
ELEMENT_SET_NO = 999
REV_AT_EPOCH   = 327
BSTAR          = .62347075E-3
MEAN_MOTION_DOT = .8737E-4
MEAN_MOTION_DDOT = 0

CCSDS_OMM_VERS = 2.0
CREATION_DATE  = 
ORIGINATOR     = 

OBJECT_NAME    = 2025-292B
OBJECT_ID      = 2025-292B
CENTER_NAME    = EARTH
REF_FRAME      = TEME
TIME_SYSTEM    = UTC
MEAN_ELEMENT_THEORY = SGP/SGP4

EPOCH          = 2025-12-31T21:26:31.674624
MEAN_MOTION    = 15.04741360
ECCENTRICITY   = .00148609
INCLINATION    = 97.6514
RA_OF_ASC_NODE = 78.2604
ARG_OF_PERICENTER = 205.0162
MEAN_ANOMALY   = 155.0346

EPHEMERIS_TYPE = 0
CLASSIFICATION_TYPE = U
NORAD_CAT_ID   = 66994
ELEMENT_SET_NO = 999
REV_AT_EPOCH   = 327
BSTAR          = .70383559E-3
MEAN_MOTION_DOT = .9888E-4
MEAN_MOTION_DDOT = 0

CCSDS_OMM_VERS = 2.0
CREATION_DATE  = 
ORIGINATOR     = 

OBJECT_NAME    = 2025-292C
OBJECT_ID      = 2025-292C
CENTER_NAME    = EARTH
REF_FRAME      = TEME
TIME_SYSTEM    = UTC
MEAN_ELEMENT_THEORY = SGP/SGP4

EPOCH          = 2025-12-31T21:26:53.464704
MEAN_MOTION    = 15.04650379
ECCENTRICITY   = .00150336
INCLINATION    = 97.6504
RA_OF_ASC_NODE = 78.2576
ARG_OF_PERICENTER = 203.1795
MEAN_ANOMALY   = 156.8754

EPHEMERIS_TYPE = 0
CLASSIFICATION_TYPE = U
NORAD_CAT_ID   = 66995
ELEMENT_SET_NO = 999
REV_AT_EPOCH   = 327
BSTAR          = .78181363E-3
MEAN_MOTION_DOT = .10965E-3
MEAN_MOTION_DDOT = 0

CCSDS_OMM_VERS = 2.0
CREATION_DATE  = 
ORIGINATOR     = 

OBJECT_NAME    = 2025-292D
OBJECT_ID      = 2025-292D
CENTER_NAME    = EARTH
REF_FRAME      = TEME
TIME_SYSTEM    = UTC
MEAN_ELEMENT_THEORY = SGP/SGP4

EPOCH          = 2025-12-31T21:25:44.960736
MEAN_MOTION    = 15.04727735
ECCENTRICITY   = .00142321
INCLINATION    = 97.6500
RA_OF_ASC_NODE = 78.2574
ARG_OF_PERICENTER = 207.1211
MEAN_ANOMALY   = 152.9274

EPHEMERIS_TYPE = 0
CLASSIFICATION_TYPE = U
NORAD_CAT_ID   = 66996
ELEMENT_SET_NO = 999
REV_AT_EPOCH   = 327
BSTAR          = .52414843E-3
MEAN_MOTION_DOT = .7341E-4
MEAN_MOTION_DDOT = 0

CCSDS_OMM_VERS = 2.0
CREATION_DATE  = 
ORIGINATOR     = 

OBJECT_NAME    = 2025-292E
OBJECT_ID      = 2025-292E
CENTER_NAME    = EARTH
REF_FRAME      = TEME
TIME_SYSTEM    = UTC
MEAN_ELEMENT_THEORY = SGP/SGP4

EPOCH          = 2025-12-31T21:23:42.412704
MEAN_MOTION    = 15.04866375
ECCENTRICITY   = .00145882
INCLINATION    = 97.6522
RA_OF_ASC_NODE = 78.2649
ARG_OF_PERICENTER = 208.4913
MEAN_ANOMALY   = 151.5517

EPHEMERIS_TYPE = 0
CLASSIFICATION_TYPE = U
NORAD_CAT_ID   = 66997
ELEMENT_SET_NO = 999
REV_AT_EPOCH   = 326
BSTAR          = .62849517E-3
MEAN_MOTION_DOT = .885E-4
MEAN_MOTION_DDOT = 0

CCSDS_OMM_VERS = 2.0
CREATION_DATE  = 
ORIGINATOR     = 

OBJECT_NAME    = 2025-292F
OBJECT_ID      = 2025-292F
CENTER_NAME    = EARTH
REF_FRAME      = TEME
TIME_SYSTEM    = UTC
MEAN_ELEMENT_THEORY = SGP/SGP4

EPOCH          = 2025-12-31T21:20:06.559584
MEAN_MOTION    = 15.05075229
ECCENTRICITY   = .00157036
INCLINATION    = 97.6546
RA_OF_ASC_NODE = 78.2735
ARG_OF_PERICENTER = 209.1207
MEAN_ANOMALY   = 150.9145

EPHEMERIS_TYPE = 0
CLASSIFICATION_TYPE = U
NORAD_CAT_ID   = 66998
ELEMENT_SET_NO = 999
REV_AT_EPOCH   = 327
BSTAR          = .7502759E-3
MEAN_MOTION_DOT = .10643E-3
MEAN_MOTION_DDOT = 0

CCSDS_OMM_VERS = 2.0
CREATION_DATE  = 
ORIGINATOR     = 

OBJECT_NAME    = 2025-292G
OBJECT_ID      = 2025-292G
CENTER_NAME    = EARTH
REF_FRAME      = TEME
TIME_SYSTEM    = UTC
MEAN_ELEMENT_THEORY = SGP/SGP4

EPOCH          = 2025-12-31T21:18:46.954944
MEAN_MOTION    = 15.05140140
ECCENTRICITY   = .00151841
INCLINATION    = 97.6556
RA_OF_ASC_NODE = 78.2771
ARG_OF_PERICENTER = 210.9216
MEAN_ANOMALY   = 149.1117

EPHEMERIS_TYPE = 0
CLASSIFICATION_TYPE = U
NORAD_CAT_ID   = 66999
ELEMENT_SET_NO = 999
REV_AT_EPOCH   = 327
BSTAR          = .74053959E-3
MEAN_MOTION_DOT = .1052E-3
MEAN_MOTION_DDOT = 0

CCSDS_OMM_VERS = 2.0
CREATION_DATE  = 
ORIGINATOR     = 

OBJECT_NAME    = 2025-292H
OBJECT_ID      = 2025-292H
CENTER_NAME    = EARTH
REF_FRAME      = TEME
TIME_SYSTEM    = UTC
MEAN_ELEMENT_THEORY = SGP/SGP4

EPOCH          = 2025-12-31T21:18:20.493216
MEAN_MOTION    = 15.05196892
ECCENTRICITY   = .00150919
INCLINATION    = 97.6570
RA_OF_ASC_NODE = 78.2810
ARG_OF_PERICENTER = 210.8874
MEAN_ANOMALY   = 149.1466

EPHEMERIS_TYPE = 0
CLASSIFICATION_TYPE = U
NORAD_CAT_ID   = 67000
ELEMENT_SET_NO = 999
REV_AT_EPOCH   = 314
BSTAR          = .90453921E-3
MEAN_MOTION_DOT = .12888E-3
MEAN_MOTION_DDOT = 0

CCSDS_OMM_VERS = 2.0
CREATION_DATE  = 
ORIGINATOR     = 

OBJECT_NAME    = 2025-292J
OBJECT_ID      = 2025-292J
CENTER_NAME    = EARTH
REF_FRAME      = TEME
TIME_SYSTEM    = UTC
MEAN_ELEMENT_THEORY = SGP/SGP4

EPOCH          = 2025-12-31T13:32:04.801344
MEAN_MOTION    = 15.04547369
ECCENTRICITY   = .00154954
INCLINATION    = 97.6532
RA_OF_ASC_NODE = 77.9339
ARG_OF_PERICENTER = 202.4579
MEAN_ANOMALY   = 157.5970

EPHEMERIS_TYPE = 0
CLASSIFICATION_TYPE = U
NORAD_CAT_ID   = 67001
ELEMENT_SET_NO = 999
REV_AT_EPOCH   = 322
BSTAR          = .80827686E-3
MEAN_MOTION_DOT = .1131E-3
MEAN_MOTION_DDOT = 0

